CCSDS_OMM_VERS = 2.0
CREATION_DATE  = 
ORIGINATOR     = 

OBJECT_NAME    = ATLAS CENTAUR 2
OBJECT_ID      = 1963-047A
CENTER_NAME    = EARTH
REF_FRAME      = TEME
TIME_SYSTEM    = UTC
MEAN_ELEMENT_THEORY = SGP/SGP4

EPOCH          = 2025-12-08T06:26:52.313856
MEAN_MOTION    = 14.11721433
ECCENTRICITY   = .05490682
INCLINATION    = 30.3567
RA_OF_ASC_NODE = 346.4321
ARG_OF_PERICENTER = 354.7831
MEAN_ANOMALY   = 4.7219

EPHEMERIS_TYPE = 0
CLASSIFICATION_TYPE = U
NORAD_CAT_ID   = 694
ELEMENT_SET_NO = 999
REV_AT_EPOCH   = 11869
BSTAR          = .53807938E-3
MEAN_MOTION_DOT = .4466E-4
MEAN_MOTION_DDOT = 0

CCSDS_OMM_VERS = 2.0
CREATION_DATE  = 
ORIGINATOR     = 

OBJECT_NAME    = THOR AGENA D R/B
OBJECT_ID      = 1964-002A
CENTER_NAME    = EARTH
REF_FRAME      = TEME
TIME_SYSTEM    = UTC
MEAN_ELEMENT_THEORY = SGP/SGP4

EPOCH          = 2025-12-08T06:09:37.080288
MEAN_MOTION    = 14.33955736
ECCENTRICITY   = .0033153
INCLINATION    = 99.1216
RA_OF_ASC_NODE = 345.6329
ARG_OF_PERICENTER = 163.1167
MEAN_ANOMALY   = 197.1127

EPHEMERIS_TYPE = 0
CLASSIFICATION_TYPE = U
NORAD_CAT_ID   = 733
ELEMENT_SET_NO = 999
REV_AT_EPOCH   = 22519
BSTAR          = .18369864E-3
MEAN_MOTION_DOT = .467E-5
MEAN_MOTION_DDOT = 0

CCSDS_OMM_VERS = 2.0
CREATION_DATE  = 
ORIGINATOR     = 

OBJECT_NAME    = SL-3 R/B
OBJECT_ID      = 1964-053B
CENTER_NAME    = EARTH
REF_FRAME      = TEME
TIME_SYSTEM    = UTC
MEAN_ELEMENT_THEORY = SGP/SGP4

EPOCH          = 2025-12-08T02:58:23.987136
MEAN_MOTION    = 14.61269127
ECCENTRICITY   = .00734832
INCLINATION    = 65.0769
RA_OF_ASC_NODE = 239.6634
ARG_OF_PERICENTER = 321.8801
MEAN_ANOMALY   = 37.7113

EPHEMERIS_TYPE = 0
CLASSIFICATION_TYPE = U
NORAD_CAT_ID   = 877
ELEMENT_SET_NO = 999
REV_AT_EPOCH   = 25341
BSTAR          = .14893735E-3
MEAN_MOTION_DOT = .64E-5
MEAN_MOTION_DDOT = 0

CCSDS_OMM_VERS = 2.0
CREATION_DATE  = 
ORIGINATOR     = 

OBJECT_NAME    = SL-8 R/B
OBJECT_ID      = 1967-045B
CENTER_NAME    = EARTH
REF_FRAME      = TEME
TIME_SYSTEM    = UTC
MEAN_ELEMENT_THEORY = SGP/SGP4

EPOCH          = 2025-12-08T05:24:08.195904
MEAN_MOTION    = 14.45530086
ECCENTRICITY   = .00645221
INCLINATION    = 74.0096
RA_OF_ASC_NODE = 158.8929
ARG_OF_PERICENTER = 189.2878
MEAN_ANOMALY   = 170.7093

EPHEMERIS_TYPE = 0
CLASSIFICATION_TYPE = U
NORAD_CAT_ID   = 2802
ELEMENT_SET_NO = 999
REV_AT_EPOCH   = 7580
BSTAR          = .20958198E-3
MEAN_MOTION_DOT = .73E-5
MEAN_MOTION_DDOT = 0

CCSDS_OMM_VERS = 2.0
CREATION_DATE  = 
ORIGINATOR     = 

OBJECT_NAME    = SL-8 R/B
OBJECT_ID      = 1968-040B
CENTER_NAME    = EARTH
REF_FRAME      = TEME
TIME_SYSTEM    = UTC
MEAN_ELEMENT_THEORY = SGP/SGP4

EPOCH          = 2025-12-08T04:18:05.100480
MEAN_MOTION    = 15.02473973
ECCENTRICITY   = .00251401
INCLINATION    = 74.0299
RA_OF_ASC_NODE = 140.5666
ARG_OF_PERICENTER = 343.1937
MEAN_ANOMALY   = 16.8415

EPHEMERIS_TYPE = 0
CLASSIFICATION_TYPE = U
NORAD_CAT_ID   = 3230
ELEMENT_SET_NO = 999
REV_AT_EPOCH   = 7626
BSTAR          = .39558309E-3
MEAN_MOTION_DOT = .5247E-4
MEAN_MOTION_DDOT = 0

CCSDS_OMM_VERS = 2.0
CREATION_DATE  = 
ORIGINATOR     = 

OBJECT_NAME    = OAO 2
OBJECT_ID      = 1968-110A
CENTER_NAME    = EARTH
REF_FRAME      = TEME
TIME_SYSTEM    = UTC
MEAN_ELEMENT_THEORY = SGP/SGP4

EPOCH          = 2025-12-08T07:17:01.192128
MEAN_MOTION    = 14.47240275
ECCENTRICITY   = .00055725
INCLINATION    = 34.9942
RA_OF_ASC_NODE = 55.4245
ARG_OF_PERICENTER = 190.6201
MEAN_ANOMALY   = 169.4373

EPHEMERIS_TYPE = 0
CLASSIFICATION_TYPE = U
NORAD_CAT_ID   = 3597
ELEMENT_SET_NO = 999
REV_AT_EPOCH   = 585
BSTAR          = .17409094E-3
MEAN_MOTION_DOT = .626E-5
MEAN_MOTION_DDOT = 0

CCSDS_OMM_VERS = 2.0
CREATION_DATE  = 
ORIGINATOR     = 

OBJECT_NAME    = ISIS 1
OBJECT_ID      = 1969-009A
CENTER_NAME    = EARTH
REF_FRAME      = TEME
TIME_SYSTEM    = UTC
MEAN_ELEMENT_THEORY = SGP/SGP4

EPOCH          = 2025-12-08T04:36:05.859072
MEAN_MOTION    = 11.30351698
ECCENTRICITY   = .17068439
INCLINATION    = 88.4487
RA_OF_ASC_NODE = 165.2940
ARG_OF_PERICENTER = 273.8904
MEAN_ANOMALY   = 66.9593

EPHEMERIS_TYPE = 0
CLASSIFICATION_TYPE = U
NORAD_CAT_ID   = 3669
ELEMENT_SET_NO = 999
REV_AT_EPOCH   = 33819
BSTAR          = .26519356E-3
MEAN_MOTION_DOT = .364E-5
MEAN_MOTION_DDOT = 0

CCSDS_OMM_VERS = 2.0
CREATION_DATE  = 
ORIGINATOR     = 

OBJECT_NAME    = SERT 2
OBJECT_ID      = 1970-009A
CENTER_NAME    = EARTH
REF_FRAME      = TEME
TIME_SYSTEM    = UTC
MEAN_ELEMENT_THEORY = SGP/SGP4

EPOCH          = 2025-12-08T07:50:03.062976
MEAN_MOTION    = 13.58716761
ECCENTRICITY   = .00055202
INCLINATION    = 99.2642
RA_OF_ASC_NODE = 285.4733
ARG_OF_PERICENTER = 44.3836
MEAN_ANOMALY   = 72.1347

EPHEMERIS_TYPE = 0
CLASSIFICATION_TYPE = U
NORAD_CAT_ID   = 4327
ELEMENT_SET_NO = 999
REV_AT_EPOCH   = 76748
BSTAR          = .15058642E-3
MEAN_MOTION_DOT = .69E-6
MEAN_MOTION_DDOT = 0

CCSDS_OMM_VERS = 2.0
CREATION_DATE  = 
ORIGINATOR     = 

OBJECT_NAME    = SL-3 R/B
OBJECT_ID      = 1971-028B
CENTER_NAME    = EARTH
REF_FRAME      = TEME
TIME_SYSTEM    = UTC
MEAN_ELEMENT_THEORY = SGP/SGP4

EPOCH          = 2025-12-08T05:36:02.347200
MEAN_MOTION    = 15.54089607
ECCENTRICITY   = .0019417
INCLINATION    = 81.2372
RA_OF_ASC_NODE = 164.3566
ARG_OF_PERICENTER = 256.7032
MEAN_ANOMALY   = 103.2052

EPHEMERIS_TYPE = 0
CLASSIFICATION_TYPE = U
NORAD_CAT_ID   = 5118
ELEMENT_SET_NO = 999
REV_AT_EPOCH   = 97443
BSTAR          = .48358538E-3
MEAN_MOTION_DOT = .31722E-3
MEAN_MOTION_DDOT = 0

CCSDS_OMM_VERS = 2.0
CREATION_DATE  = 
ORIGINATOR     = 

OBJECT_NAME    = ASTEX 1
OBJECT_ID      = 1971-089A
CENTER_NAME    = EARTH
REF_FRAME      = TEME
TIME_SYSTEM    = UTC
MEAN_ELEMENT_THEORY = SGP/SGP4

EPOCH          = 2025-12-08T06:58:00.071040
MEAN_MOTION    = 14.50634857
ECCENTRICITY   = .00169226
INCLINATION    = 92.7135
RA_OF_ASC_NODE = 122.1795
ARG_OF_PERICENTER = 39.8930
MEAN_ANOMALY   = 320.3517

EPHEMERIS_TYPE = 0
CLASSIFICATION_TYPE = U
NORAD_CAT_ID   = 5560
ELEMENT_SET_NO = 999
REV_AT_EPOCH   = 84905
BSTAR          = .28806192E-3
MEAN_MOTION_DOT = .1131E-4
MEAN_MOTION_DDOT = 0

CCSDS_OMM_VERS = 2.0
CREATION_DATE  = 
ORIGINATOR     = 

OBJECT_NAME    = SL-8 R/B
OBJECT_ID      = 1971-119B
CENTER_NAME    = EARTH
REF_FRAME      = TEME
TIME_SYSTEM    = UTC
MEAN_ELEMENT_THEORY = SGP/SGP4

EPOCH          = 2025-12-08T07:07:43.263264
MEAN_MOTION    = 14.35570582
ECCENTRICITY   = .05598286
INCLINATION    = 73.8885
RA_OF_ASC_NODE = 346.2711
ARG_OF_PERICENTER = 331.4282
MEAN_ANOMALY   = 25.7201

EPHEMERIS_TYPE = 0
CLASSIFICATION_TYPE = U
NORAD_CAT_ID   = 5730
ELEMENT_SET_NO = 999
REV_AT_EPOCH   = 64236
BSTAR          = .7769916E-3
MEAN_MOTION_DOT = .14879E-3
MEAN_MOTION_DDOT = 0

CCSDS_OMM_VERS = 2.0
CREATION_DATE  = 
ORIGINATOR     = 

OBJECT_NAME    = OAO 3 (COPERNICUS)
OBJECT_ID      = 1972-065A
CENTER_NAME    = EARTH
REF_FRAME      = TEME
TIME_SYSTEM    = UTC
MEAN_ELEMENT_THEORY = SGP/SGP4

EPOCH          = 2025-12-07T16:48:56.756160
MEAN_MOTION    = 14.59899608
ECCENTRICITY   = .00060625
INCLINATION    = 35.0052
RA_OF_ASC_NODE = 101.3707
ARG_OF_PERICENTER = 131.0157
MEAN_ANOMALY   = 15.1328

EPHEMERIS_TYPE = 0
CLASSIFICATION_TYPE = U
NORAD_CAT_ID   = 6153
ELEMENT_SET_NO = 999
REV_AT_EPOCH   = 83274
BSTAR          = .16839197E-3
MEAN_MOTION_DOT = .798E-5
MEAN_MOTION_DDOT = 0

