ATLAS CENTAUR 2         
1 00694U 63047A   25342.26866104  .00004466  00000+0  53808-3 0  9994
2 00694  30.3567 346.4321 0549068 354.7831   4.7219 14.11721433118696
THOR AGENA D R/B        
1 00733U 64002A   25342.25667917  .00000467  00000+0  18370-3 0  9992
2 00733  99.1216 345.6329 0033153 163.1167 197.1127 14.33955736225198
SL-3 R/B                
1 00877U 64053B   25342.12388874  .00000640  00000+0  14894-3 0  9995
2 00877  65.0769 239.6634 0073483 321.8801  37.7113 14.61269127253414
SL-8 R/B                
1 02802U 67045B   25342.22509486  .00000730  00000+0  20958-3 0  9992
2 02802  74.0096 158.8929 0064522 189.2878 170.7093 14.45530086 75807
SL-8 R/B                
1 03230U 68040B   25342.17922570  .00005247  00000+0  39558-3 0  9995
2 03230  74.0299 140.5666 0025140 343.1937  16.8415 15.02473973 76268
OAO 2                   
1 03597U 68110A   25342.30348602  .00000626  00000+0  17409-3 0  9999
2 03597  34.9942  55.4245 0005572 190.6201 169.4373 14.47240275  5857
ISIS 1                  
1 03669U 69009A   25342.19173448  .00000364  00000+0  26519-3 0  9999
2 03669  88.4487 165.2940 1706843 273.8904  66.9593 11.30351698338193
SERT 2                  
1 04327U 70009A   25342.32642434  .00000069  00000+0  15059-3 0  9993
2 04327  99.2642 285.4733 0005520  44.3836  72.1347 13.58716761767483
SL-3 R/B                
1 05118U 71028B   25342.23336050  .00031722  00000+0  48359-3 0  9997
2 05118  81.2372 164.3566 0019417 256.7032 103.2052 15.54089607974433
ASTEX 1                 
1 05560U 71089A   25342.29027860  .00001131  00000+0  28806-3 0  9993
2 05560  92.7135 122.1795 0016922  39.8930 320.3517 14.50634857849054
SL-8 R/B                
1 05730U 71119B   25342.29702851  .00014879  00000+0  77699-3 0  9993
2 05730  73.8885 346.2711 0559828 331.4282  25.7201 14.35570582642368
OAO 3 (COPERNICUS)      
1 06153U 72065A   25341.70065690  .00000798  00000+0  16839-3 0  9996
2 06153  35.0052 101.3707 0006062 131.0157  15.1328 14.59899608832746
